NORAD_CAT_ID,OBJECT_NAME,OBJECT_TYPE,EPOCH,MEAN_MOTION,ECCENTRICITY,INCLINATION,RA_OF_ASC_NODE,ARG_OF_PERICENTER,MEAN_ANOMALY,BSTAR,MEAN_MOTION_DOT,MEAN_MOTION_DDOT,TLE_LINE0,TLE_LINE1,TLE_LINE2,SEMIMAJOR_AXIS,PERIOD,APOGEE,PERIGEE,DECAYED
51127.0,STARLINK-3370,PAYLOAD,2024-06-01 04:26:20,15.08830096,0.0001034,53.2182,321.4047,84.2603,275.8507,-9.6184e-06,-4.41e-06,0.0,0 STARLINK-3370,1 51127U 22005Z   24153.18496277 -.00000441  00000-0 -96184-5 0  9998,2 51127  53.2182 321.4047 0001034  84.2603 275.8507 15.08830096132258,6917.911,95.438,540.491,539.06,0.0
51127.0,STARLINK-3370,PAYLOAD,2024-06-01 20:20:11,15.0884716,0.0001229,53.2164,318.431,126.1043,234.0063,0.00057313,8.847e-05,0.0,0 STARLINK-3370,1 51127U 22005Z   24153.84735501  .00008847  00000-0  57313-3 0  9992,2 51127  53.2164 318.4310 0001229 126.1043 234.0063 15.08847160132352,6917.859,95.437,540.574,538.873,0.0
51127.0,STARLINK-3370,PAYLOAD,2024-06-02 10:38:39,15.0885023,9.64e-05,53.216,315.7557,91.1035,269.0068,0.00052997,8.159e-05,0.0,0 STARLINK-3370,1 51127U 22005Z   24154.44351671  .00008159  00000-0  52997-3 0  9990,2 51127  53.2160 315.7557 0000964  91.1035 269.0068 15.08850230132443,6917.849,95.437,540.381,539.047,0.0
51127.0,STARLINK-3370,PAYLOAD,2024-06-02 20:10:58,15.08862314,9.95e-05,53.2158,313.972,82.8239,277.2867,0.00054751,8.442e-05,0.0,0 STARLINK-3370,1 51127U 22005Z   24154.84095006  .00008442  00000-0  54751-3 0  9996,2 51127  53.2158 313.9720 0000995  82.8239 277.2867 15.08862314131385,6917.812,95.436,540.366,538.989,0.0
51127.0,STARLINK-3370,PAYLOAD,2024-06-03 04:07:54,15.08847669,0.0002967,53.2149,312.4841,87.1314,273.0018,0.00018034,2.583e-05,0.0,0 STARLINK-3370,1 51127U 22005Z   24155.17215869  .00002583  00000-0  18034-3 0  9998,2 51127  53.2149 312.4841 0002967  87.1314 273.0018 15.08847669132554,6917.857,95.437,541.774,537.669,0.0
51127.0,STARLINK-3370,PAYLOAD,2024-06-03 10:29:26,15.08854911,0.0001237,53.2153,311.2929,104.6026,255.5104,0.00027576,4.105e-05,0.0,0 STARLINK-3370,1 51127U 22005Z   24155.43710849  .00004105  00000-0  27576-3 0  9998,2 51127  53.2153 311.2929 0001237 104.6026 255.5104 15.08854911131476,6917.835,95.437,540.556,538.844,0.0
51127.0,STARLINK-3370,PAYLOAD,2024-06-03 16:50:58,15.08856611,0.0001274,53.2153,310.1036,105.0571,255.0562,0.00037304,5.657e-05,0.0,0 STARLINK-3370,1 51127U 22005Z   24155.70206607  .00005657  00000-0  37304-3 0  9993,2 51127  53.2153 310.1036 0001274 105.0571 255.0562 15.08856611131511,6917.83,95.437,540.576,538.813,0.0
51127.0,STARLINK-3370,PAYLOAD,2024-06-04 10:20:13,15.08842804,0.0001385,53.2116,306.8319,278.5102,81.5733,0.00036074,5.458e-05,0.0,0 STARLINK-3370,1 51127U 22005Z   24156.43071019  .00005458  00000-0  36074-3 0  9993,2 51127  53.2116 306.8319 0001385 278.5102  81.5733 15.08842804132742,6917.872,95.437,540.695,538.779,0.0
51127.0,STARLINK-3370,PAYLOAD,2024-06-04 16:41:46,15.08836335,7.05e-05,53.2091,305.6451,88.0934,272.0138,0.00015216,2.135e-05,0.0,0 STARLINK-3370,1 51127U 22005Z   24156.69567231  .00002135  00000-0  15216-3 0  9991,2 51127  53.2091 305.6451 0000705  88.0934 272.0138 15.08836335131668,6917.892,95.438,540.244,539.269,0.0
51127.0,STARLINK-3370,PAYLOAD,2024-06-05 10:11:00,15.08838662,8.09e-05,53.2129,302.3717,93.7612,266.3473,9.6933e-05,1.255e-05,0.0,0 STARLINK-3370,1 51127U 22005Z   24157.42431381  .00001255  00000-0  96933-4 0  9997,2 51127  53.2129 302.3717 0000809  93.7612 266.3473 15.08838662131775,6917.884,95.438,540.309,539.19,0.0
51127.0,STARLINK-3370,PAYLOAD,2024-06-05 16:32:33,15.08843996,5.8e-05,53.2174,301.1841,86.9355,273.1704,0.0002221,3.249e-05,0.0,0 STARLINK-3370,1 51127U 22005Z   24157.68927204  .00003249  00000-0  22210-3 0  9990,2 51127  53.2174 301.1841 0000580  86.9355 273.1704 15.08843996132932,6917.868,95.437,540.134,539.332,0.0
51127.0,STARLINK-3370,PAYLOAD,2024-06-06 02:04:51,15.08847958,7.36e-05,53.2194,299.4013,89.6646,270.4431,0.00027984,4.17e-05,0.0,0 STARLINK-3370,1 51127U 22005Z   24158.08671008  .00004170  00000-0  27984-3 0  9990,2 51127  53.2194 299.4013 0000736  89.6646 270.4431 15.08847958131871,6917.856,95.437,540.23,539.212,0.0
51127.0,STARLINK-3370,PAYLOAD,2024-06-07 08:17:11,15.08836329,0.0001356,53.2173,293.7511,96.3203,263.7944,1.847e-05,6e-08,0.0,0 STARLINK-3370,1 51127U 22005Z   24159.34527657  .00000006  00000-0  18470-4 0  9995,2 51127  53.2173 293.7511 0001356  96.3203 263.7944 15.08836329133181,6917.892,95.438,540.695,538.819,0.0
51127.0,STARLINK-3370,PAYLOAD,2024-06-08 08:07:58,15.08849291,0.0001317,53.2121,289.2879,77.6787,282.4352,0.00019765,2.86e-05,0.0,0 STARLINK-3370,1 51127U 22005Z   24160.33887183  .00002860  00000-0  19765-3 0  9996,2 51127  53.2121 289.2879 0001317  77.6787 282.4352 15.08849291132213,6917.852,95.437,540.628,538.806,0.0
51127.0,STARLINK-3370,PAYLOAD,2024-06-08 17:40:16,15.08858484,0.0001716,53.2137,287.505,78.7491,281.3694,0.00038131,5.789e-05,0.0,0 STARLINK-3370,1 51127U 22005Z   24160.73630730  .00005789  00000-0  38131-3 0  9995,2 51127  53.2137 287.5050 0001716  78.7491 281.3694 15.08858484133390,6917.824,95.436,540.876,538.502,0.0
51127.0,STARLINK-3370,PAYLOAD,2024-06-09 01:37:12,15.08840286,0.0001296,53.2141,286.018,93.5036,266.6104,-6.9449e-05,-1.393e-05,0.0,0 STARLINK-3370,1 51127U 22005Z   24161.06751072 -.00001393  00000-0 -69449-4 0  9991,2 51127  53.2141 286.0180 0001296  93.5036 266.6104 15.08840286133445,6917.88,95.438,540.641,538.848,0.0
51127.0,STARLINK-3370,PAYLOAD,2024-06-09 14:20:18,15.08837891,0.0002313,53.2098,283.6387,90.4838,269.6419,1.0729e-05,-1.18e-06,0.0,0 STARLINK-3370,1 51127U 22005Z   24161.59743596 -.00000118  00000-0  10729-4 0  9991,2 51127  53.2098 283.6387 0002313  90.4838 269.6419 15.08837891132400,6917.887,95.438,541.352,538.152,0.0
51127.0,STARLINK-3370,PAYLOAD,2024-06-10 01:28:00,15.08834647,0.0001578,53.2122,281.5582,93.3652,266.752,-7.7795e-05,-1.526e-05,0.0,0 STARLINK-3370,1 51127U 22005Z   24162.06111870 -.00001526  00000-0 -77795-4 0  9999,2 51127  53.2122 281.5582 0001578  93.3652 266.7520 15.08834647133598,6917.897,95.438,540.853,538.67,0.0
51127.0,STARLINK-3370,PAYLOAD,2024-06-10 12:35:42,15.08847703,0.0001092,53.2121,279.4753,104.2567,255.8546,0.00029037,4.337e-05,0.0,0 STARLINK-3370,1 51127U 22005Z   24162.52479332  .00004337  00000-0  29037-3 0  9996,2 51127  53.2121 279.4753 0001092 104.2567 255.8546 15.08847703133663,6917.857,95.437,540.477,538.966,0.0
51127.0,STARLINK-3370,PAYLOAD,2024-06-10 14:11:05,15.08850111,0.000125,53.2128,279.1784,98.3333,261.7801,0.00032393,4.873e-05,0.0,0 STARLINK-3370,1 51127U 22005Z   24162.59103333  .00004873  00000-0  32393-3 0  9992,2 51127  53.2128 279.1784 0001250  98.3333 261.7801 15.08850111132555,6917.849,95.437,540.579,538.85,0.0
51127.0,STARLINK-3370,PAYLOAD,2024-06-10 15:46:28,15.08853626,0.0001103,53.2148,278.8818,102.202,257.9096,0.00060533,9.363e-05,0.0,0 STARLINK-3370,1 51127U 22005Z   24162.65727376  .00009363  00000-0  60533-3 0  9994,2 51127  53.2148 278.8818 0001103 102.2020 257.9096 15.08853626132564,6917.839,95.437,540.467,538.941,0.0
51127.0,STARLINK-3370,PAYLOAD,2024-06-11 14:01:52,15.08849737,0.0001441,53.2139,274.719,108.1449,251.97,0.00046433,7.112e-05,0.0,0 STARLINK-3370,1 51127U 22005Z   24163.58463467  .00007112  00000-0  46433-3 0  9998,2 51127  53.2139 274.7190 0001441 108.1449 251.9700 15.08849737132707,6917.851,95.437,540.712,538.719,0.0
51127.0,STARLINK-3370,PAYLOAD,2024-06-12 12:17:16,15.08837282,9.23e-05,53.2145,270.5561,99.8133,260.2964,0.00019803,2.865e-05,0.0,0 STARLINK-3370,1 51127U 22005Z   24164.51200071  .00002865  00000-0  19803-3 0  9993,2 51127  53.2145 270.5561 0000923  99.8133 260.2964 15.08837282133966,6917.889,95.438,540.392,539.115,0.0
51127.0,STARLINK-3370,PAYLOAD,2024-06-12 13:52:39,15.0884255,8.68e-05,53.2153,270.2592,88.9221,271.1871,0.00024091,3.549e-05,0.0,0 STARLINK-3370,1 51127U 22005Z   24164.57823997  .00003549  00000-0  24091-3 0  9992,2 51127  53.2153 270.2592 0000868  88.9221 271.1871 15.08842550132850,6917.873,95.437,540.338,539.137,0.0
51127.0,STARLINK-3370,PAYLOAD,2024-06-13 13:43:26,15.08851243,9.28e-05,53.2155,265.8008,85.8433,274.2665,0.00046876,7.183e-05,0.0,0 STARLINK-3370,1 51127U 22005Z   24165.57183846  .00007183  00000-0  46876-3 0  9998,2 51127  53.2155 265.8008 0000928  85.8433 274.2665 15.08851243134128,6917.846,95.437,540.353,539.069,0.0
51127.0,STARLINK-3370,PAYLOAD,2024-06-14 13:34:14,15.08835262,0.0001216,53.2161,261.3417,99.4903,260.6226,-5.7943e-05,-1.21e-05,0.0,0 STARLINK-3370,1 51127U 22005Z   24166.56544327 -.00001210  00000-0 -57943-4 0  9998,2 51127  53.2161 261.3417 0001216  99.4903 260.6226 15.08835262133151,6917.895,95.438,540.601,538.919,0.0
51127.0,STARLINK-3370,PAYLOAD,2024-06-14 15:09:37,15.08837819,0.000112,53.2173,261.0436,89.6266,270.4854,2.1803e-05,5.9e-07,0.0,0 STARLINK-3370,1 51127U 22005Z   24166.63168302  .00000059  00000-0  21803-4 0  9995,2 51127  53.2173 261.0436 0001120  89.6266 270.4854 15.08837819133166,6917.887,95.438,540.527,538.977,0.0
51127.0,STARLINK-3370,PAYLOAD,2024-06-15 13:25:00,15.08849848,0.000106,53.2165,256.8794,91.7894,268.3219,0.00024745,3.654e-05,0.0,0 STARLINK-3370,1 51127U 22005Z   24167.55903815  .00003654  00000-0  24745-3 0  9994,2 51127  53.2165 256.8794 0001060  91.7894 268.3219 15.08849848133302,6917.85,95.437,540.449,538.982,0.0
51127.0,STARLINK-3370,PAYLOAD,2024-06-15 15:00:23,15.08852821,0.0001086,53.2166,256.5823,94.5107,265.6009,0.00031675,4.759e-05,0.0,0 STARLINK-3370,1 51127U 22005Z   24167.62527723  .00004759  00000-0  31675-3 0  9999,2 51127  53.2166 256.5823 0001086  94.5107 265.6009 15.08852821133312,6917.841,95.437,540.457,538.955,0.0
51127.0,STARLINK-3370,PAYLOAD,2024-06-16 13:15:48,15.08842019,0.0001186,53.2157,252.4146,84.8702,275.2425,0.00012254,1.663e-05,0.0,0 STARLINK-3370,1 51127U 22005Z   24168.55264161  .00001663  00000-0  12254-3 0  9999,2 51127  53.2157 252.4146 0001186  84.8702 275.2425 15.08842019133451,6917.874,95.437,540.56,538.919,0.0
